[{"OBJECT_NAME":"PRAETORIAN SDA_601","OBJECT_ID":"2025-203W","EPOCH":"2026-03-09T14:36:57.334752","MEAN_MOTION":13.83485126,"ECCENTRICITY":0.0006541,"INCLINATION":81.3004,"RA_OF_ASC_NODE":103.1096,"ARG_OF_PERICENTER":109.4555,"MEAN_ANOMALY":250.7309,"EPHEMERIS_TYPE":0,"CLASSIFICATION_TYPE":"U","NORAD_CAT_ID":65585,"ELEMENT_SET_NO":999,"REV_AT_EPOCH":2491,"BSTAR":-2.5722e-5,"MEAN_MOTION_DOT":-1.6e-7,"MEAN_MOTION_DDOT":0},{"OBJECT_NAME":"COSMOS 1375 DEB","OBJECT_ID":"1982-055BC","EPOCH":"2026-03-08T10:08:38.183424","MEAN_MOTION":13.71467159,"ECCENTRICITY":0.00785181,"INCLINATION":65.8209,"RA_OF_ASC_NODE":224.6704,"ARG_OF_PERICENTER":201.9308,"MEAN_ANOMALY":192.2838,"EPHEMERIS_TYPE":0,"CLASSIFICATION_TYPE":"U","NORAD_CAT_ID":18413,"ELEMENT_SET_NO":999,"REV_AT_EPOCH":1072,"BSTAR":0.0010979693,"MEAN_MOTION_DOT":9.31e-6,"MEAN_MOTION_DDOT":0}]
